[{"OBJECT_NAME":"STARLINK-5067","OBJECT_ID":"2023-021AB","EPOCH":"2026-02-23T17:23:06.544320","MEAN_MOTION":14.98333336,"ECCENTRICITY":0.0002724,"INCLINATION":69.9994,"RA_OF_ASC_NODE":219.4972,"ARG_OF_PERICENTER":270.3141,"MEAN_ANOMALY":89.7705,"EPHEMERIS_TYPE":0,"CLASSIFICATION_TYPE":"U","NORAD_CAT_ID":55653,"ELEMENT_SET_NO":999,"REV_AT_EPOCH":16670,"BSTAR":8.76e-5,"MEAN_MOTION_DOT":9.52e-6,"MEAN_MOTION_DDOT":0},{"OBJECT_NAME":"STARLINK-5070","OBJECT_ID":"2023-021AC","EPOCH":"2026-02-23T20:17:22.157376","MEAN_MOTION":14.98334378,"ECCENTRICITY":0.0003045,"INCLINATION":69.9988,"RA_OF_ASC_NODE":219.5235,"ARG_OF_PERICENTER":268.4778,"MEAN_ANOMALY":91.6033,"EPHEMERIS_TYPE":0,"CLASSIFICATION_TYPE":"U","NORAD_CAT_ID":55654,"ELEMENT_SET_NO":999,"REV_AT_EPOCH":16671,"BSTAR":5.3196e-5,"MEAN_MOTION_DOT":5.42e-6,"MEAN_MOTION_DDOT":0},{"OBJECT_NAME":"STARLINK-5267","OBJECT_ID":"2023-021AD","EPOCH":"2026-02-23T19:34:57.539136","MEAN_MOTION":14.98341297,"ECCENTRICITY":0.0003135,"INCLINATION":69.9995,"RA_OF_ASC_NODE":199.5441,"ARG_OF_PERICENTER":269.9052,"MEAN_ANOMALY":90.1748,"EPHEMERIS_TYPE":0,"CLASSIFICATION_TYPE":"U","NORAD_CAT_ID":55655,"ELEMENT_SET_NO":999,"REV_AT_EPOCH":16719,"BSTAR":0.00013083,"MEAN_MOTION_DOT":1.469e-5,"MEAN_MOTION_DDOT":0},{"OBJECT_NAME":"STARLINK-5328","OBJECT_ID":"2023-021AF","EPOCH":"2026-02-23T19:46:59.817216","MEAN_MOTION":14.98332794,"ECCENTRICITY":0.0003295,"INCLINATION":69.9994,"RA_OF_ASC_NODE":199.5739,"ARG_OF_PERICENTER":270.6843,"MEAN_ANOMALY":89.3938,"EPHEMERIS_TYPE":0,"CLASSIFICATION_TYPE":"U","NORAD_CAT_ID":55657,"ELEMENT_SET_NO":999,"REV_AT_EPOCH":16720,"BSTAR":3.629e-5,"MEAN_MOTION_DOT":3.4e-6,"MEAN_MOTION_DDOT":0},{"OBJECT_NAME":"STARLINK-5307","OBJECT_ID":"2023-021AG","EPOCH":"2026-02-23T17:35:07.008864","MEAN_MOTION":14.9833125,"ECCENTRICITY":0.0003141,"INCLINATION":69.9991,"RA_OF_ASC_NODE":219.5289,"ARG_OF_PERICENTER":270.7572,"MEAN_ANOMALY":89.3227,"EPHEMERIS_TYPE":0,"CLASSIFICATION_TYPE":"U","NORAD_CAT_ID":55658,"ELEMENT_SET_NO":999,"REV_AT_EPOCH":16670,"BSTAR":3.9098e-5,"MEAN_MOTION_DOT":3.74e-6,"MEAN_MOTION_DDOT":0},{"OBJECT_NAME":"STARLINK-5477","OBJECT_ID":"2023-021AH","EPOCH":"2026-02-23T10:04:44.263200","MEAN_MOTION":14.97979838,"ECCENTRICITY":0.00027188,"INCLINATION":70.0001,"RA_OF_ASC_NODE":200.5699,"ARG_OF_PERICENTER":112.9032,"MEAN_ANOMALY":247.2415,"EPHEMERIS_TYPE":0,"CLASSIFICATION_TYPE":"U","NORAD_CAT_ID":55659,"ELEMENT_SET_NO":999,"REV_AT_EPOCH":16713,"BSTAR":-0.004391702,"MEAN_MOTION_DOT":-0.0005164,"MEAN_MOTION_DDOT":0},{"OBJECT_NAME":"STARLINK-5467","OBJECT_ID":"2023-021AJ","EPOCH":"2026-02-23T20:04:59.190816","MEAN_MOTION":14.98334203,"ECCENTRICITY":0.0003217,"INCLINATION":70,"RA_OF_ASC_NODE":199.2236,"ARG_OF_PERICENTER":270.4278,"MEAN_ANOMALY":89.6513,"EPHEMERIS_TYPE":0,"CLASSIFICATION_TYPE":"U","NORAD_CAT_ID":55660,"ELEMENT_SET_NO":999,"REV_AT_EPOCH":16721,"BSTAR":-2.7339e-6,"MEAN_MOTION_DOT":-1.26e-6,"MEAN_MOTION_DDOT":0},{"OBJECT_NAME":"STARLINK-5475","OBJECT_ID":"2023-021AK","EPOCH":"2026-02-23T16:04:05.981088","MEAN_MOTION":14.98804124,"ECCENTRICITY":0.0003147,"INCLINATION":70,"RA_OF_ASC_NODE":199.8383,"ARG_OF_PERICENTER":204.6268,"MEAN_ANOMALY":155.4741,"EPHEMERIS_TYPE":0,"CLASSIFICATION_TYPE":"U","NORAD_CAT_ID":55661,"ELEMENT_SET_NO":999,"REV_AT_EPOCH":16718,"BSTAR":0.0053227,"MEAN_MOTION_DOT":0.00064798,"MEAN_MOTION_DDOT":0},{"OBJECT_NAME":"STARLINK-5479","OBJECT_ID":"2023-021AL","EPOCH":"2026-02-23T08:36:44.815392","MEAN_MOTION":14.97524149,"ECCENTRICITY":0.00031588,"INCLINATION":69.9998,"RA_OF_ASC_NODE":200.3759,"ARG_OF_PERICENTER":270.4983,"MEAN_ANOMALY":89.5814,"EPHEMERIS_TYPE":0,"CLASSIFICATION_TYPE":"U","NORAD_CAT_ID":55662,"ELEMENT_SET_NO":999,"REV_AT_EPOCH":16714,"BSTAR":1.8550899e-5,"MEAN_MOTION_DOT":1.24e-6,"MEAN_MOTION_DDOT":0},{"OBJECT_NAME":"STARLINK-5473","OBJECT_ID":"2023-021AM","EPOCH":"2026-02-23T15:52:37.626240","MEAN_MOTION":14.98346446,"ECCENTRICITY":0.0003447,"INCLINATION":69.9997,"RA_OF_ASC_NODE":199.8071,"ARG_OF_PERICENTER":269.6049,"MEAN_ANOMALY":90.4715,"EPHEMERIS_TYPE":0,"CLASSIFICATION_TYPE":"U","NORAD_CAT_ID":55663,"ELEMENT_SET_NO":999,"REV_AT_EPOCH":16717,"BSTAR":0.0001894,"MEAN_MOTION_DOT":2.169e-5,"MEAN_MOTION_DDOT":0},{"OBJECT_NAME":"STARLINK-5480","OBJECT_ID":"2023-021AN","EPOCH":"2026-02-23T20:00:01.999008","MEAN_MOTION":14.983161,"ECCENTRICITY":0.0003407,"INCLINATION":70.0009,"RA_OF_ASC_NODE":199.4755,"ARG_OF_PERICENTER":273.5882,"MEAN_ANOMALY":202.8291,"EPHEMERIS_TYPE":0,"CLASSIFICATION_TYPE":"U","NORAD_CAT_ID":55664,"ELEMENT_SET_NO":999,"REV_AT_EPOCH":550,"BSTAR":0.0038974,"MEAN_MOTION_DOT":0.00046705,"MEAN_MOTION_DDOT":0},{"OBJECT_NAME":"STARLINK-5474","OBJECT_ID":"2023-021AP","EPOCH":"2026-02-23T15:46:38.103744","MEAN_MOTION":14.98334118,"ECCENTRICITY":0.0003109,"INCLINATION":69.9997,"RA_OF_ASC_NODE":199.7957,"ARG_OF_PERICENTER":268.5762,"MEAN_ANOMALY":91.5041,"EPHEMERIS_TYPE":0,"CLASSIFICATION_TYPE":"U","NORAD_CAT_ID":55665,"ELEMENT_SET_NO":999,"REV_AT_EPOCH":16717,"BSTAR":6.6568e-5,"MEAN_MOTION_DOT":7.01e-6,"MEAN_MOTION_DDOT":0},{"OBJECT_NAME":"STARLINK-5456","OBJECT_ID":"2023-021AR","EPOCH":"2026-02-23T15:28:36.320448","MEAN_MOTION":14.98338488,"ECCENTRICITY":0.0002779,"INCLINATION":70.0001,"RA_OF_ASC_NODE":199.7512,"ARG_OF_PERICENTER":273.1013,"MEAN_ANOMALY":86.9828,"EPHEMERIS_TYPE":0,"CLASSIFICATION_TYPE":"U","NORAD_CAT_ID":55667,"ELEMENT_SET_NO":999,"REV_AT_EPOCH":16718,"BSTAR":-4.7282e-5,"MEAN_MOTION_DOT":-6.57e-6,"MEAN_MOTION_DDOT":0},{"OBJECT_NAME":"STARLINK-5455","OBJECT_ID":"2023-021AS","EPOCH":"2026-02-23T16:10:40.729728","MEAN_MOTION":14.98334103,"ECCENTRICITY":0.0003132,"INCLINATION":69.9994,"RA_OF_ASC_NODE":199.8525,"ARG_OF_PERICENTER":269.3863,"MEAN_ANOMALY":90.6937,"EPHEMERIS_TYPE":0,"CLASSIFICATION_TYPE":"U","NORAD_CAT_ID":55668,"ELEMENT_SET_NO":999,"REV_AT_EPOCH":16717,"BSTAR":3.9731e-5,"MEAN_MOTION_DOT":3.81e-6,"MEAN_MOTION_DDOT":0},{"OBJECT_NAME":"STARLINK-5459","OBJECT_ID":"2023-021AT","EPOCH":"2026-02-23T16:00:03.000096","MEAN_MOTION":14.98336073,"ECCENTRICITY":0.0003479,"INCLINATION":70.0009,"RA_OF_ASC_NODE":199.8204,"ARG_OF_PERICENTER":270.8828,"MEAN_ANOMALY":94.3853,"EPHEMERIS_TYPE":0,"CLASSIFICATION_TYPE":"U","NORAD_CAT_ID":55669,"ELEMENT_SET_NO":999,"REV_AT_EPOCH":577,"BSTAR":-0.00019587,"MEAN_MOTION_DOT":-2.43e-5,"MEAN_MOTION_DDOT":0},{"OBJECT_NAME":"STARLINK-5423","OBJECT_ID":"2023-021AU","EPOCH":"2026-02-23T20:00:01.999008","MEAN_MOTION":14.98316669,"ECCENTRICITY":0.0003357,"INCLINATION":70.0013,"RA_OF_ASC_NODE":199.3241,"ARG_OF_PERICENTER":274.1924,"MEAN_ANOMALY":337.2984,"EPHEMERIS_TYPE":0,"CLASSIFICATION_TYPE":"U","NORAD_CAT_ID":55670,"ELEMENT_SET_NO":999,"REV_AT_EPOCH":574,"BSTAR":0.0032421,"MEAN_MOTION_DOT":0.00038793,"MEAN_MOTION_DDOT":0},{"OBJECT_NAME":"STARLINK-5460","OBJECT_ID":"2023-021AV","EPOCH":"2026-02-23T19:59:15.093312","MEAN_MOTION":14.98345263,"ECCENTRICITY":0.0003145,"INCLINATION":69.9999,"RA_OF_ASC_NODE":199.5933,"ARG_OF_PERICENTER":270.3945,"MEAN_ANOMALY":89.6854,"EPHEMERIS_TYPE":0,"CLASSIFICATION_TYPE":"U","NORAD_CAT_ID":55671,"ELEMENT_SET_NO":999,"REV_AT_EPOCH":16720,"BSTAR":8.3127e-5,"MEAN_MOTION_DOT":8.99e-6,"MEAN_MOTION_DDOT":0},{"OBJECT_NAME":"STARLINK-5463","OBJECT_ID":"2023-021AX","EPOCH":"2026-02-23T15:34:36.818400","MEAN_MOTION":14.98335693,"ECCENTRICITY":0.000288,"INCLINATION":69.9992,"RA_OF_ASC_NODE":199.7632,"ARG_OF_PERICENTER":268.0941,"MEAN_ANOMALY":91.9888,"EPHEMERIS_TYPE":0,"CLASSIFICATION_TYPE":"U","NORAD_CAT_ID":55673,"ELEMENT_SET_NO":999,"REV_AT_EPOCH":16718,"BSTAR":-6.9988e-6,"MEAN_MOTION_DOT":-1.77e-6,"MEAN_MOTION_DDOT":0},{"OBJECT_NAME":"STARLINK-5462","OBJECT_ID":"2023-021AY","EPOCH":"2026-02-23T20:11:00.837888","MEAN_MOTION":14.98340619,"ECCENTRICITY":0.0002908,"INCLINATION":70.0024,"RA_OF_ASC_NODE":199.2306,"ARG_OF_PERICENTER":269.6578,"MEAN_ANOMALY":90.4248,"EPHEMERIS_TYPE":0,"CLASSIFICATION_TYPE":"U","NORAD_CAT_ID":55674,"ELEMENT_SET_NO":999,"REV_AT_EPOCH":16721,"BSTAR":0.00068321,"MEAN_MOTION_DOT":8.071e-5,"MEAN_MOTION_DDOT":0},{"OBJECT_NAME":"STARLINK-5232","OBJECT_ID":"2023-021AZ","EPOCH":"2026-02-23T19:58:59.562912","MEAN_MOTION":14.98337131,"ECCENTRICITY":0.0003031,"INCLINATION":69.9998,"RA_OF_ASC_NODE":199.2028,"ARG_OF_PERICENTER":275.5274,"MEAN_ANOMALY":84.5539,"EPHEMERIS_TYPE":0,"CLASSIFICATION_TYPE":"U","NORAD_CAT_ID":55675,"ELEMENT_SET_NO":999,"REV_AT_EPOCH":16721,"BSTAR":0.00013132,"MEAN_MOTION_DOT":1.474e-5,"MEAN_MOTION_DDOT":0},{"OBJECT_NAME":"STARLINK-5300","OBJECT_ID":"2023-021BA","EPOCH":"2026-02-23T01:09:19.339200","MEAN_MOTION":14.98339613,"ECCENTRICITY":0.00030759,"INCLINATION":70.0023,"RA_OF_ASC_NODE":181.4097,"ARG_OF_PERICENTER":268.5145,"MEAN_ANOMALY":91.5662,"EPHEMERIS_TYPE":0,"CLASSIFICATION_TYPE":"U","NORAD_CAT_ID":55676,"ELEMENT_SET_NO":999,"REV_AT_EPOCH":16758,"BSTAR":5.6210596e-5,"MEAN_MOTION_DOT":5.78e-6,"MEAN_MOTION_DDOT":0},{"OBJECT_NAME":"STARLINK-5324","OBJECT_ID":"2023-021BB","EPOCH":"2026-02-23T18:28:31.802592","MEAN_MOTION":14.98330711,"ECCENTRICITY":0.000358,"INCLINATION":70.0002,"RA_OF_ASC_NODE":179.5096,"ARG_OF_PERICENTER":267.9429,"MEAN_ANOMALY":92.132,"EPHEMERIS_TYPE":0,"CLASSIFICATION_TYPE":"U","NORAD_CAT_ID":55677,"ELEMENT_SET_NO":999,"REV_AT_EPOCH":16769,"BSTAR":6.9156e-6,"MEAN_MOTION_DOT":-1.1e-7,"MEAN_MOTION_DDOT":0},{"OBJECT_NAME":"STARLINK-5592","OBJECT_ID":"2023-028A","EPOCH":"2026-02-23T01:04:45.313824","MEAN_MOTION":14.98333328,"ECCENTRICITY":0.00029622,"INCLINATION":69.9982,"RA_OF_ASC_NODE":281.4959,"ARG_OF_PERICENTER":269.389,"MEAN_ANOMALY":90.6929,"EPHEMERIS_TYPE":0,"CLASSIFICATION_TYPE":"U","NORAD_CAT_ID":55741,"ELEMENT_SET_NO":999,"REV_AT_EPOCH":16403,"BSTAR":4.6683371e-5,"MEAN_MOTION_DOT":4.64e-6,"MEAN_MOTION_DDOT":0}]
